[{"OBJECT_NAME":"STARLINK-2644","OBJECT_ID":"2021-040Q","EPOCH":"2026-03-09T12:29:13.742880","MEAN_MOTION":15.3026185,"ECCENTRICITY":2.35e-5,"INCLINATION":53.1593,"RA_OF_ASC_NODE":178.9056,"ARG_OF_PERICENTER":113.8154,"MEAN_ANOMALY":246.2871,"EPHEMERIS_TYPE":0,"CLASSIFICATION_TYPE":"U","NORAD_CAT_ID":48442,"ELEMENT_SET_NO":999,"REV_AT_EPOCH":26665,"BSTAR":0.001131098,"MEAN_MOTION_DOT":0.00033356,"MEAN_MOTION_DDOT":0},{"OBJECT_NAME":"SL-3 R\/B","OBJECT_ID":"1981-065B","EPOCH":"2026-03-09T21:58:16.284000","MEAN_MOTION":15.33300883,"ECCENTRICITY":0.00117648,"INCLINATION":97.6337,"RA_OF_ASC_NODE":111.1786,"ARG_OF_PERICENTER":10.529,"MEAN_ANOMALY":349.6196,"EPHEMERIS_TYPE":0,"CLASSIFICATION_TYPE":"U","NORAD_CAT_ID":12586,"ELEMENT_SET_NO":999,"REV_AT_EPOCH":43499,"BSTAR":0.00030084921,"MEAN_MOTION_DOT":9.62e-5,"MEAN_MOTION_DDOT":0}]
